ORBCOMM FM24            
1 25478U 98053D   25293.54671282  .00002230  00000+0  77011-3 0  9992
2 25478  45.0084  34.5764 0003128 173.5631 186.5258 14.38442420415498
ORBCOMM FM25            
1 25479U 98053E   25293.59008615  .00002477  00000+0  85046-3 0  9992
2 25479  45.0086  32.6608 0005498 171.0439 189.0509 14.38413138415792
ORBCOMM FM26            
1 25480U 98053F   25293.54646085  .00001787  00000+0  63901-3 0  9997
2 25480  45.0081  30.2479 0007543 181.0148 179.0686 14.37420916415684
ORBCOMM FM27            
1 25481U 98053G   25293.64440582  .00002440  00000+0  83801-3 0  9991
2 25481  45.0061  32.5574 0002258 201.1768 158.8987 14.38450201415730
ORBCOMM FM28            
1 25482U 98053H   25293.80585265  .00001676  00000+0  58834-3 0  9996
2 25482  45.0062 329.1277 0006287 226.0967 133.9363 14.38596175416442
ORBCOMM FM30            
1 25980U 99065A   25293.52203633  .00001872  00000+0  66508-3 0  9993
2 25980  45.0309 216.3519 0007523 287.7283  72.2744 14.37589139352486
ORBCOMM FM31            
1 25981U 99065B   25293.77898778  .00001795  00000+0  64047-3 0  9991
2 25981  45.0221 208.5969 0005271 313.8151  46.2261 14.37519002352077
ORBCOMM FM32            
1 25982U 99065C   25293.56087182  .00001827  00000+0  66356-3 0  9999
2 25982  45.0151 227.0488 0007850 304.2874  55.7230 14.36572571352624
